# From MPC117070
A/2018 V3,e,164.9777,308.6583,3.4972,121.7122,0.0007340,0.98899502,0.0000,09/08.6940/2019,2000,g 15.7,2.0
# From MPC114604
C/2018 V4 (Africano),e,69.0044,78.3804,359.9813,212.0237,0.0003192,0.98491321,0.0000,03/01.5792/2019,2000,g 12.5,4.0
# From MPC114604
P/2018 V5 (Trujillo-Sheppard),e,10.5814,171.3030,260.7550,8.956602,0.0367696,0.47449122,17.0156,01/09.0/2020,2000,g 12.5,4.0
# From MPC115884
C/2018 W1 (Catalina),e,83.2710,233.5915,251.2582,21.81490,0.0096733,0.93764044,2.3423,01/09.0/2020,2000,g 15.7,2.0
# From MPC118842
C/2018 W2 (Africano),h,09/05.7315/2019,116.6155,181.8500,157.9763,1.000722,1.454701,2000,9.5,4.0
# From MPC115884
C/2018 X2 (Fitzsimmons),e,23.0698,340.8302,162.0512,151.6768,0.0005276,0.98598385,0.0000,07/08.5369/2019,2000,g 12.0,4.0
# From MPC114604
C/2018 X3 (PANSTARRS),e,43.3690,78.9229,359.8030,12.39993,0.0225723,0.78238607,8.4490,01/09.0/2020,2000,g 14.5,4.0
# From MPC118842
C/2018 Y1 (Iwamoto),e,160.4034,147.4942,358.0543,144.6127,0.0005668,0.99110283,0.0000,02/07.0343/2019,2000,g 11.5,4.0
# From MPC114605
P/2018 Y2 (Africano),e,11.6825,297.2657,162.4516,7.470511,0.0482701,0.47891121,17.9426,01/09.0/2020,2000,g 11.5,4.0
# From MPC114605
P/2019 A1 (PANSTARRS),e,13.7442,312.3012,150.8321,5.126804,0.0849052,0.56859771,38.6351,01/09.0/2020,2000,g 16.0,4.0
# From MPC114605
P/2019 A2 (ATLAS),e,14.8589,139.4620,324.1820,5.728470,0.0718863,0.38159170,29.7490,01/09.0/2020,2000,g 10.5,4.0
# From MPC114605
P/2019 A3 (PANSTARRS),e,15.3647,31.3230,325.4789,3.147567,0.1764987,0.26517671,92.6837,01/09.0/2020,2000,g 16.0,4.0
# From MPC114605
P/2019 A4 (PANSTARRS),e,13.3206,119.3010,341.5969,2.612684,0.2333855,0.08937005,93.5076,01/09.0/2020,2000,g 15.0,4.0
# From MPC118842
C/2019 A5 (PANSTARRS),e,67.5460,146.6201,356.0287,21.63419,0.0097947,0.70768238,2.0931,01/09.0/2020,2000,g  9.5,4.0
# From MPC114605
P/2019 A6 (Lemmon-PANSTARRS),e,33.2292,280.2740,156.2671,5.367658,0.0792550,0.63895563,39.4516,01/09.0/2020,2000,g 16.0,4.0
# From MPC114605
P/2019 A7 (PANSTARRS),e,17.7743,280.5245,119.3669,3.186676,0.1732595,0.16085131,126.7486,01/09.0/2020,2000,g 13.5,4.0
# From MPC115884
P/2019 A8 (PANSTARRS),e,2.9728,127.8436,21.7103,3.362541,0.1598463,0.44047857,78.8160,01/09.0/2020,2000,g 16.0,4.0
# From MPC118842
C/2019 A9 (PANSTARRS),e,84.3420,278.3682,237.8100,38.81051,0.0040764,0.96324403,0.6786,01/09.0/2020,2000,g 15.0,4.0
# From MPC114606
C/2019 B1 (Africano),e,123.3634,290.4352,174.8727,151.6013,0.0005280,0.98946555,0.0000,03/19.9051/2019,2000,g 16.0,4.0
# From MPC115885
P/2019 B2 (Groeller),e,16.8279,176.4554,358.7525,3.853379,0.1302991,0.37285324,27.9941,01/09.0/2020,2000,g 14.5,4.0
# From MPC115885
C/2019 B3 (PANSTARRS),h,01/19.5381/2021,66.5334,358.4152,263.8750,1.002940,6.824133,2000,5.5,4.0
# From MPC118842
A/2019 C1,e,36.0147,212.4003,319.1854,859.5476,0.0000391,0.99234330,0.0000,05/05.6992/2020,2000,g 10.0,4.0
# From MPC118842
C/2019 D1 (Flewelling),e,34.0969,231.7192,70.4856,138.5558,0.0006043,0.98861313,0.0000,05/11.8531/2019,2000,g 13.0,4.0
# From MPC118842
C/2019 E3 (ATLAS),h,11/11.5962/2023,84.2754,347.2182,280.5820,1.004982,10.316597,2000,2.5,4.0
# From MPC117071
C/2019 F1 (ATLAS-Africano),h,06/22.7914/2021,54.1729,38.7264,251.1005,1.003199,3.596562,2000,5.5,4.0
# From MPC115885
C/2019 F2 (ATLAS),e,19.1879,175.8680,10.9665,16.53552,0.0146581,0.86496544,1.7894,01/09.0/2020,2000,g 12.0,4.0
# From MPC118842
A/2019 G2,e,159.2116,208.1447,82.6523,718.5116,0.0000512,0.99681096,0.0000,12/10.0601/2019,2000,g 16.5,2.0
# From MPC118094
A/2019 G4,h,09/15.6986/2018,138.3816,130.4670,287.8751,1.000496,5.858687,2000,13.0,2.0
# From MPC114607
P/2019 GG21 (PANSTARRS),e,6.0840,340.6047,208.3222,7.463823,0.0483350,0.47278038,11.7950,01/09.0/2020,2000,g 12.0,4.0
# From MPC115885
C/2019 H1 (NEOWISE),e,104.5791,269.1854,19.2836,225.9985,0.0002901,0.99183672,0.0000,04/27.7316/2019,2000,g 15.5,4.0
# From MPC118842
C/2019 J1 (Lemmon),e,24.5506,98.0883,167.7779,70.41558,0.0016680,0.96480151,0.4582,01/09.0/2020,2000,g 12.0,4.0
# From MPC115885
C/2019 J2 (Palomar),e,105.1355,25.4712,98.7077,705.8034,0.0000526,0.99755320,0.0000,07/19.7286/2019,2000,g 13.0,4.0
# From MPC117071
C/2019 J3 (ATLAS),e,131.4138,270.5176,16.5463,40539,0.0000001,0.99994145,0.0000,08/01.8685/2019,2000,g 13.5,4.0
# From MPC117071
C/2019 JU6 (ATLAS),e,148.2931,21.7365,94.8694,332.0886,0.0001629,0.99384243,0.0000,05/31.8705/2019,2000,g 14.5,4.0
# From MPC117071
C/2019 K1 (ATLAS),e,87.1459,73.3747,265.7116,7563,0.0000015,0.99973392,0.0000,02/12.9618/2020,2000,g 10.0,4.0
# From MPC118842
C/2019 K4 (Ye),e,105.3034,180.1650,139.7733,2126,0.0000101,0.99893742,0.0000,06/16.4163/2019,2000,g 12.5,4.0
# From MPC118842
C/2019 K5 (Young),e,15.3149,177.1857,174.9238,152.8632,0.0005215,0.98668679,0.0000,06/22.7647/2019,2000,g 13.0,4.0
# From MPC117071
A/2019 K6,e,132.3768,42.9392,187.6007,1596,0.0000155,0.99753769,0.0000,05/20.0894/2020,2000,g 13.6,2.0
# From MPC118095
C/2019 K7 (Smith),h,06/16.8190/2020,103.5020,307.9166,27.2793,1.002137,4.475017,2000,6.2,4.0
# From MPC117071
C/2019 K8 (ATLAS),e,93.2225,291.0454,85.3592,1590,0.0000155,0.99799057,0.0000,07/21.2512/2019,2000,g 11.5,4.0
# From MPC118095
C/2019 L1 (PANSTARRS),e,9.9934,254.4079,49.9263,9.835412,0.0319533,0.70613632,4.8154,01/09.0/2020,2000,g 13.5,4.0
# From MPC115886
C/2019 L2 (NEOWISE),e,152.1856,12.5655,18.7508,25.00168,0.0078841,0.93519676,2.2237,01/09.0/2020,2000,g 16.0,4.0
# From MPC118843
C/2019 L3 (ATLAS),h,01/09.9086/2022,48.3663,290.7853,171.6772,1.000339,3.552486,2000,4.5,4.0
# From MPC118095
C/2019 LB7 (Kleyna),e,164.2332,3.2911,335.9161,35.13193,0.0047332,0.92931702,1.3619,01/09.0/2020,2000,g 17.0,4.0
# From MPC118843
P/2019 M2 (ATLAS),e,12.2818,307.6015,332.5285,3.025479,0.1872892,0.64848523,37.5202,01/09.0/2020,2000,g 21.2,4.0
# From MPC118095
C/2019 M3 (ATLAS),h,01/03.0359/2019,99.4380,154.8958,87.9416,1.002066,2.418143,2000,12.2,4.0
# From MPC118843
C/2019 N1 (ATLAS),e,82.4241,13.5788,193.4451,14109,0.0000006,0.99987919,0.0000,12/01.7929/2020,2000,g  7.5,4.0
# From MPC118843
A/2019 O2,e,93.2868,48.3447,129.6380,57.53564,0.0022584,0.83169910,357.3261,01/09.0/2020,2000,g  9.5,2.0
# From MPC118843
A/2019 O3,h,03/07.0460/2021,89.8140,300.3804,60.0000,1.001327,8.819531,2000,10.0,2.0
# From MPC117072
A/2019 O4,e,115.0846,354.9180,61.8017,32.87910,0.0052279,0.88915618,359.8332,01/09.0/2020,2000,g 15.5,2.0
# From MPC118843
A/2019 Q1,h,07/19.5712/2020,155.7227,42.3401,55.9110,1.001251,4.997255,2000,12.5,2.0
# From MPC117072
A/2019 Q2,e,159.0274,187.9627,176.2732,58.11536,0.0022247,0.97835577,0.0000,07/22.3683/2019,2000,g 18.0,2.0
# From MPC117072
C/2019 Q3 (PANSTARRS),h,08/20.8771/2018,65.5323,151.3253,152.6321,1.004657,7.250483,2000,8.5,4.0
# From MPC117072
P/2019 S2 (PANSTARRS),e,10.4732,93.1264,216.7252,4.734175,0.0956836,0.20679928,30.8361,01/09.0/2020,2000,g 13.5,4.0
# From MPC118096
P/2019 S3 (PANSTARRS),e,8.6925,150.1679,212.9604,3.413683,0.1562677,0.47071284,21.2346,01/09.0/2020,2000,g 18.3,4.0
# From MPC118843
A/2019 S4,e,92.0248,63.1693,71.3568,242.2745,0.0002614,0.98579448,0.0000,04/07.9454/2020,2000,g 14.5,2.0
# From MPC118843
A/2019 T1,e,120.8683,6.9491,90.9912,38.19139,0.0041760,0.88787499,358.4505,01/09.0/2020,2000,g 13.0,2.0
# From MPC118843
A/2019 T2,e,111.4676,155.6373,239.3900,1688,0.0000142,0.99843229,0.0000,04/22.3947/2021,2000,g 12.5,2.0
# From MPC118843
C/2019 T3 (ATLAS),e,121.8620,139.5115,112.2456,9926,0.0000010,0.99940090,0.0000,03/02.3759/2021,2000,g  6.8,4.0
# From MPC118844
C/2019 T4 (ATLAS),e,53.6165,199.9831,351.1969,1186,0.0000241,0.99642252,0.0000,06/09.0272/2022,2000,g  5.0,4.0
# From MPC118096
C/2019 T5 (ATLAS),e,33.4242,247.6860,189.5438,7.894767,0.0444319,0.80644600,7.1525,01/09.0/2020,2000,g 15.0,4.0
# From MPC118096
P/2019 T6 (PANSTARRS),e,18.6973,71.3098,328.9178,5.432167,0.0778475,0.62226578,4.8439,01/09.0/2020,2000,g 15.5,4.0
# From MPC118096
P/2019 U4 (PANSTARRS),e,11.6908,200.0381,180.9560,3.519885,0.1492490,0.47525492,16.8128,01/09.0/2020,2000,g 19.0,4.0
# From MPC118844
A/2019 U5,h,03/30.5770/2023,113.5290,2.7094,181.6241,1.000249,3.621318,2000,10.0,2.0
# From MPC118844
A/2019 U6,e,61.0023,235.7072,329.6561,439.6245,0.0001069,0.99792026,0.0000,06/18.8236/2020,2000,g 14.5,2.0
# From MPC118097
C/2019 V1 (Borisov),p,07/16.3366/2020,61.9003,51.0667,3.102588,83.2114,2000,11.0,4.0
# From MPC118844
P/2019 V2 (Groeller),e,11.7873,189.2946,334.1297,7.569193,0.0473293,0.33331949,347.3095,01/09.0/2020,2000,g 10.0,4.0
# From  98, 1083
1P/Halley,e,162.3185,58.1518,111.0890,17.86844,0.0130489,0.96629780,161.9569,01/09.0/2020,2000,g  4.0,6.0
# From MPC118097
2P/Encke,e,11.7648,334.5534,186.5631,2.215159,0.2989486,0.84800047,309.5236,01/09.0/2020,2000,g 11.5,6.0
# From MPEC 2015-A10
4P/Faye,e,8.0243,193.5303,206.6813,3.821002,0.1319587,0.57914011,279.6770,01/09.0/2020,2000,g  8.0,6.0
# From MPEC 2015-S97
6P/d'Arrest,e,19.5094,138.9284,178.0746,3.498602,0.1506130,0.61244691,266.9455,01/09.0/2020,2000,g  9.0,4.0
# From MPEC 2015-E14
7P/Pons-Winnecke,e,22.3648,93.3810,172.5540,3.415967,0.1561110,0.63854305,281.3107,01/09.0/2020,2000,g  9.0,4.0
# From MPC 75715
8P/Tuttle,e,54.9124,270.2070,207.4974,5.700154,0.0724226,0.81994591,316.7718,01/09.0/2020,2000,g  9.0,4.0
# From MPEC 2019-JE2
9P/Tempel,e,10.4734,68.7374,179.3032,3.147397,0.1765130,0.50957675,221.3216,01/09.0/2020,2000,g  9.0,4.0
# From MPC114607
10P/Tempel,e,12.0396,117.8078,195.5040,3.060943,0.1840438,0.53840054,278.9604,01/09.0/2020,2000,g  5.0,10.0
# From MPEC 2017-L52
11P/Tempel-Swift-LINEAR,e,14.4263,238.9574,167.8391,3.286527,0.1654239,0.57724925,306.7171,01/09.0/2020,2000,g  9.0,4.0
# From  27, 604
12P/Pons-Brooks,e,74.0618,255.6981,199.0694,17.06187,0.0139850,0.95425965,338.1220,01/09.0/2020,2000,g  5.0,6.0
# From  27, 604
13P/Olbers,e,44.6273,85.8367,64.5943,16.66008,0.0144940,0.92978855,336.2975,01/09.0/2020,2000,g  5.0,6.0
# From MPC100283
14P/Wolf,e,27.9000,202.0927,158.9818,4.259619,0.1121109,0.35644200,86.1047,01/09.0/2020,2000,g  5.5,12.0
# From MPC 92276
